stk.v.11.0

# WrittenBy    STK_v11.2.1

BEGIN Ephemeris

NumberOfEphemerisPoints 10081

ScenarioEpoch            11 Sep 2017 19:00:00.000000

# Epoch in JDate format: 2458008.29166666666667
# Epoch in YYDDD format:   17254.79166666666667


InterpolationMethod     Lagrange

InterpolationSamplesM1      5

CentralBody             Earth

CoordinateSystem        ICRF 

# Time of first point: 11 Sep 2017 19:00:00.000000000 UTCG = 2458008.29166666666667 JDate = 17254.79166666666667 YYDDD

EphemerisTimePosVel

5.85900000000000e+05 5.57879102584507e+06 -3.44916504491083e+06 -2.20316687467804e+06 2.92858221654846e+03 6.45919815831603e+03 -2.70882482053739e+03
5.85960000000000e+05 5.74229239396350e+06 -3.05441930167188e+06 -2.36079321603201e+06 2.51949736397810e+03 6.69420509258574e+03 -2.54345281225483e+03
5.86020000000000e+05 5.88091458357351e+06 -2.64643982613070e+06 -2.50816295467525e+06 2.09957872420394e+03 6.90016474170216e+03 -2.36706437501953e+03
5.86080000000000e+05 5.99406196152796e+06 -2.22699647793182e+06 -2.64463793971641e+06 1.67064604268049e+03 7.07619791535396e+03 -2.18042852203558e+03
5.86140000000000e+05 6.08124922811278e+06 -1.79790799307613e+06 -2.76962748327068e+06 1.23455602593820e+03 7.22155509711880e+03 -1.98435771772323e+03
5.86200000000000e+05 6.14210339524056e+06 -1.36103411446743e+06 -2.88259086134316e+06 7.93194353743655e+02 7.33561931346394e+03 -1.77970430522137e+03
5.86260000000000e+05 6.17636528321600e+06 -9.18267567327514e+05 -2.98303959588859e+06 3.48467624120110e+02 7.41790843672798e+03 -1.56735679212919e+03
5.86320000000000e+05 6.18389053302923e+06 -4.71525913406016e+05 -3.07053951005518e+06 -9.77047366829598e+01 7.46807692357375e+03 -1.34823601140144e+03
5.86380000000000e+05 6.16465013300146e+06 -2.27433177761272e+04 -3.14471254962951e+06 -5.43398568835892e+02 7.48591699233111e+03 -1.12329117382637e+03
5.86440000000000e+05 6.11873046038255e+06 4.26137738233745e+05 -3.20523836468006e+06 -9.86693049398523e+02 7.47135924419946e+03 -8.93495827952841e+02
5.86500000000000e+05 6.04633284017646e+06 8.73174764795398e+05 -3.25185564634687e+06 -1.42567871143854e+03 7.42447273446501e+03 -6.59843742711376e+02
5.86560000000000e+05 5.94777262505413e+06 1.31643355922020e+06 -3.28436321462059e+06 -1.85846538604562e+03 7.34546450073189e+03 -4.23344727387210e+02
5.86620000000000e+05 5.82347780171442e+06 1.75399645714149e+06 -3.30262085382092e+06 -2.28319004276971e+03 7.23467855573290e+03 -1.85020403027980e+02
5.86680000000000e+05 5.67398713049689e+06 2.18397050733782e+06 -3.30654989330758e+06 -2.69802450502306e+03 7.09259435263158e+03 5.41000611020683e+01
5.86740000000000e+05 5.49994782640312e+06 2.60449553886586e+06 -3.29613353175557e+06 -3.10118301786250e+03 6.91982473088552e+03 2.92984232845625e+02
5.86800000000000e+05 5.30211279107615e+06 3.01375208949918e+06 -3.27141690409395e+06 -3.49092964594017e+03 6.71711335088414e+03 5.30600711257778e+02
5.86860000000000e+05 5.08133740653405e+06 3.40996916517966e+06 -3.23250689096956e+06 -3.86558547989541e+03 6.48533162559021e+03 7.65923416741711e+02
5.86920000000000e+05 4.83857590282129e+06 3.79143180050316e+06 -3.17957167134664e+06 -4.22353562930925e+03 6.22547515761478e+03 9.97935864353116e+02
5.86980000000000e+05 4.57487731305187e+06 4.15648839083239e+06 -3.11284001962294e+06 -4.56323598021912e+03 5.93865969043084e+03 1.22563540728469e+03
5.87040000000000e+05 4.29138103058335e+06 4.50355776724894e+06 -3.03260034940121e+06 -4.88321969491258e+03 5.62611658283016e+03 1.44803743731117e+03
5.87100000000000e+05 3.98931198451480e+06 4.83113598595939e+06 -2.93919950687632e+06 -5.18210343107991e+03 5.28918781654932e+03 1.66417952847479e+03
5.87160000000000e+05 3.66997545103674e+06 5.13780280449451e+06 -2.83304131762154e+06 -5.45859325695434e+03 4.92932054794709e+03 1.87312550986330e+03
5.87220000000000e+05 3.33475151956391e+06 5.42222781772614e+06 -2.71458489141878e+06 -5.71149023851236e+03 4.54806121592183e+03 2.07396945277787e+03
5.87280000000000e+05 2.98508923409928e+06 5.68317622743484e+06 -2.58434269070419e+06 -5.93969567425198e+03 4.14704921999573e+03 2.26583955696561e+03
5.87340000000000e+05 2.62250043169506e+06 5.91951422011710e+06 -2.44287836912879e+06 -6.14221595277301e+03 3.72801018442296e+03 2.44790192006408e+03
5.87400000000000e+05 2.24855330140385e+06 6.13021392869926e+06 -2.29080438772773e+06 -6.31816700818954e+03 3.29274882653280e+03 2.61936417385851e+03
5.87460000000000e+05 1.86486568860625e+06 6.31435795500302e+06 -2.12877941720082e+06 -6.46677834851656e+03 2.84314145011666e+03 2.77947897052916e+03
5.87520000000000e+05 1.47309817104964e+06 6.47114343115264e+06 -1.95750553583243e+06 -6.58739663260643e+03 2.38112808747334e+03 2.92754730176817e+03
5.87580000000000e+05 1.07494693443896e+06 6.59988559959382e+06 -1.77772523364722e+06 -6.67948877196797e+03 1.90870431681886e+03 3.06292163347647e+03
5.87640000000000e+05 6.72136476716337e+05 6.70002089313339e+06 -1.59021823440808e+06 -6.74264453501785e+03 1.42791278479555e+03 3.18500883883069e+03
5.87700000000000e+05 2.66412171540993e+05 6.77110949825754e+06 -1.39579814812680e+06 -6.77657863288570e+03 9.40834467065520e+02 3.29327291273527e+03
5.87760000000000e+05 -1.40467277351129e+05 6.81283738708182e+06 -1.19530896774962e+06 -6.78113226794026e+03 4.49579703058470e+02 3.38723745118102e+03
5.87820000000000e+05 -5.46737458213002e+05 6.82501780554683e+06 -9.89621424624842e+05 -6.75627412865794e+03 -4.37209561275213e+01 3.46648787976990e+03
5.87880000000000e+05 -9.50635916102682e+05 6.80759220788976e+06 -7.79629218305197e+05 -6.70210081730491e+03 -5.36926044818342e+02 3.53067341662239e+03
5.87940000000000e+05 -1.35040982613601e+06 6.76063063002274e+06 -5.66245137032913e+05 -6.61883670013711e+03 -1.02789258063379e+03 3.57950875612643e+03
5.88000000000000e+05 -1.74432364030185e+06 6.68433149716033e+06 -3.50397086038736e+05 -6.50683317336852e+03 -1.51448551678090e+03 3.61277546142071e+03
5.88060000000000e+05 -2.13066667268492e+06 6.57902086387306e+06 -1.33024041434889e+05 -6.36656734197362e+03 -1.99458720079478e+03 3.63032305517332e+03
5.88120000000000e+05 -2.50776058788287e+06 6.44515108765611e+06 8.49280519583301e+04 -6.19864011240116e+03 -2.46610679060650e+03 3.63206980006301e+03
5.88180000000000e+05 -2.87396675757767e+06 6.28329894006934e+06 3.02510420063104e+05 -6.00377370441473e+03 -2.92698957819497e+03 3.61800316237631e+03
5.88240000000000e+05 -3.22769345068246e+06 6.09416316247878e+06 5.18775617176459e+05 -5.78280859143965e+03 -3.37522617106686e+03 3.58817995426141e+03
5.88300000000000e+05 -3.56740282311689e+06 5.87856147641793e+06 7.32781682456096e+05 -5.53669988295924e+03 -3.80886148226557e+03 3.54272615239169e+03
5.88360000000000e+05 -3.89161767424927e+06 5.63742706148815e+06 9.43596275898210e+05 -5.26651316649598e+03 -4.22600348077098e+03 3.48183639304828e+03
5.88420000000000e+05 -4.19892793817477e+06 5.37180451656979e+06 1.15030077448190e+06 -4.97341983055004e+03 -4.62483165573870e+03 3.40577314588772e+03
5.88480000000000e+05 -4.48799687939929e+06 5.08284532283842e+06 1.35199430935571e+06 -4.65869189341274e+03 -5.00360515018325e+03 3.31486557087951e+03
5.88540000000000e+05 -4.75756696407719e+06 4.77180282968429e+06 1.54779772524745e+06 -4.32369636601131e+03 -5.36067052228508e+03 3.20950806504182e+03
5.88600000000000e+05 -5.00646537975781e+06 4.44002678702930e+06 1.73685744374280e+06 -3.96988917974916e+03 -5.69446909553032e+03 3.09015850761879e+03
5.88660000000000e+05 -5.23360917850569e+06 4.08895744979008e+06 1.91834921261750e+06 -3.59880871274404e+03 -6.00354386217038e+03 2.95733621422105e+03
5.88720000000000e+05 -5.43801002032885e+06 3.72011928227729e+06 2.09148172407800e+06 -3.21206894984294e+03 -6.28654590804559e+03 2.81161961214996e+03
5.88780000000000e+05 -5.61877849604992e+06 3.33511429209713e+06 2.25550008555125e+06 -2.81135231326130e+03 -6.54224033056938e+03 2.65364365060652e+03
5.88840000000000e+05 -5.77512801097966e+06 2.93561502474298e+06 2.40968912750034e+06 -2.39840220178033e+03 -6.76951162542973e+03 2.48409696077556e+03
5.88900000000000e+05 -5.90637821306395e+06 2.52335725141979e+06 2.55337653368184e+06 -1.97501527704196e+03 -6.96736852137069e+03 2.30371878182442e+03
5.88960000000000e+05 -6.01195795151245e+06 2.10013238374679e+06 2.68593578026157e+06 -1.54303353565186e+03 -7.13494824614430e+03 2.11329566967159e+03
5.89020000000000e+05 -6.09140775422324e+06 1.66777964994353e+06 2.80678887123198e+06 -1.10433620568434e+03 -7.27152021026185e+03 1.91365800600072e+03
5.89080000000000e+05 -6.14438181464195e+06 1.22817806775888e+06 2.91540885866474e+06 -6.60831505652288e+02 -7.37648909855663e+03 1.70567632537703e+03
5.89140000000000e+05 -6.17064948094958e+06 7.83238249932623e+05 3.01132213741811e+06 -2.14448303292093e+02 -7.44939736265951e+03 1.49025747854414e+03
5.89200000000000e+05 -6.17009624268996e+06 3.34894078307126e+05 3.09411050502502e+06 2.32872289416164e+02 -7.48992711031161e+03 1.26834065002940e+03
5.89260000000000e+05 -6.14272421210448e+06 -1.14905717155328e+05 3.16341297859339e+06 6.79185349660350e+02 -7.49790138995940e+03 1.04089324809751e+03
5.89320000000000e+05 -6.08865209952006e+06 -5.64206038172568e+05 3.21892736163910e+06 1.12255057143089e+03 -7.47328487128181e+03 8.08906684911725e+02
5.89380000000000e+05 -6.00811468415626e+06 -1.01105392055354e+06 3.26041155484088e+06 1.56104065426717e+03 -7.41618392421751e+03 5.73392064538703e+02
5.89440000000000e+05 -5.90146178366250e+06 -1.45350702329081e+06 3.28768460576877e+06 1.99274962115520e+03 -7.32684610071319e+03 3.35375796134607e+02
5.89500000000000e+05 -5.76915672757571e+06 -1.88964206867845e+06 3.30062749366208e+06 2.41580103457558e+03 -7.20565902482729e+03 9.58951493927721e+01
5.89560000000000e+05 -5.61177434172159e+06 -2.31756319817498e+06 3.29918364634252e+06 2.82835608056359e+03 -7.05314869806868e+03 -1.44006230891843e+02
5.89620000000000e+05 -5.42999845236351e+06 -2.73541020919448e+06 3.28335918734439e+06 3.22862149137509e+03 -6.86997722796773e+03 -3.83282834470689e+02
END Ephemeris
